STARLINK-31223          
1 58865U 24019N   24255.79084904 -.00000487  00000+0 -87891-5 0  9995
2 58865  43.0006  75.9798 0000186 276.0621  84.0208 15.25895580 35931
STARLINK-31219          
1 58866U 24019P   24255.77287241 -.00002123  00000+0 -71273-4 0  9998
2 58866  43.0013  76.7091 0001847 258.5146 101.5498 15.25927413 35923
STARLINK-31198          
1 58867U 24019Q   24255.87212550  .00002413  00000+0  10210-3 0  9994
2 58867  43.0020  75.6955 0001371 288.8551  71.2151 15.25901687 35943
STARLINK-31196          
1 58868U 24019R   24255.87439108  .00003575  00000+0  14639-3 0  9994
2 58868  43.0034  75.7266 0000606 330.7330  29.3487 15.25917077 35943
STARLINK-31203          
1 58869U 24019S   24255.89130028  .00002426  00000+0  10256-3 0  9991
2 58869  43.0010  70.6952 0001106 232.1305 127.9446 15.25909010 36025
STARLINK-31201          
1 58870U 24019T   24255.77966933  .00003284  00000+0  13535-3 0  9998
2 58870  42.9990  76.7613 0001544 245.8897 114.1792 15.25904490 35923
STARLINK-31214          
1 58871U 24019U   24255.89926577 -.00008010  00000+0 -29652-3 0  9993
2 58871  43.0005  75.9339 0001051 265.4848  94.5883 15.25929894 35945
STARLINK-31215          
1 58872U 24019V   24255.56519636  .00030632  00000+0  11752-2 0  9996
2 58872  43.0033  77.7227 0001430 278.3365  81.7324 15.25932402 35892
STARLINK-31177          
1 58873U 24019W   24255.78857734 -.00000870  00000+0 -23440-4 0  9997
2 58873  43.0014  75.9506 0001312 273.0124  87.0577 15.25901392 35956
STARLINK-30945          
1 58874U 24019X   24255.86760901  .00004095  00000+0  16628-3 0  9996
2 58874  43.0026  75.6669 0000705  33.9834 326.1062 15.25915714 35963
STARLINK-31212          
1 58875U 24019Y   24255.77514429  .00000988  00000+0  47628-4 0  9991
2 58875  43.0003  76.7246 0001520 245.0020 115.0673 15.25902126 35923
STARLINK-31306          
1 58876U 24020A   24255.51720830  .00000383  00000+0  22590-4 0  9991
2 58876  53.1592 331.6289 0001168  97.3439 262.7696 15.34203503 35916
STARLINK-31326          
1 58877U 24020B   24255.91667824 -.00116137  00000+0 -39621-2 0  9997
2 58877  53.1600 328.5676 0001440 100.9386 190.1706 15.30266075  5908
STARLINK-31300          
1 58878U 24020C   24255.51253896 -.00000981  00000+0 -18024-4 0  9999
2 58878  53.1588 331.5949 0001113 105.0971 255.0154 15.34210370 34736
STARLINK-31296          
1 58879U 24020D   24255.91667824 -.00131911  00000+0 -42563-2 0  9995
2 58879  53.1590 329.6947 0001325  74.5121   6.7779 15.32131052  5715
STARLINK-31328          
1 58880U 24020E   24255.45984002  .00002983  00000+0  99984-4 0  9991
2 58880  53.1592 325.4821 0001985 107.2067 252.9153 15.34205410 35984
STARLINK-31260          
1 58881U 24020F   24255.63816603  .00009158  00000+0  28347-3 0  9998
2 58881  53.1577 330.9587 0001182  95.2981 264.8156 15.34214717 34757
STARLINK-31323          
1 58882U 24020G   24255.50357348  .00001466  00000+0  54854-4 0  9998
2 58882  53.1599 331.5411 0001696  91.3441 268.7756 15.34190469 34737
STARLINK-31209          
1 58883U 24020H   24255.50322669  .00001215  00000+0  47356-4 0  9998
2 58883  53.1584 331.5372 0001283  70.0683 290.0458 15.34208255 34732
STARLINK-31315          
1 58884U 24020J   24255.42649511  .00003363  00000+0  94025-4 0  9999
2 58884  53.1598 307.4902 0001493  80.7221 279.3953 15.39615523 35060
STARLINK-31318          
1 58885U 24020K   24255.52209847 -.00004784  00000+0 -13139-3 0  9991
2 58885  53.1588 330.9384 0001577  85.9412 274.1770 15.34202556 34744
STARLINK-31320          
1 58886U 24020L   24255.49855761 -.00002636  00000+0 -67339-4 0  9996
2 58886  53.1585 331.5102 0001278  93.9618 266.1531 15.34206135 34734
STARLINK-31321          
1 58887U 24020M   24255.49424095 -.00000817  00000+0 -13134-4 0  9992
2 58887  53.1591 331.4777 0001629 119.4817 240.6349 15.34199504 35897
STARLINK-31007          
1 58889U 24020P   24255.49389863  .00002915  00000+0  97933-4 0  9995
2 58889  53.1601 331.4782 0001227  91.9838 268.1305 15.34212182 34735
STARLINK-31230          
1 58890U 24020Q   24255.91667824  .00091958  00000+0  23965-2 0  9997
2 58890  53.1607 329.0631 0004643  41.5138  11.7923 15.38103942  5900
STARLINK-31245          
1 58891U 24020R   24255.40473879 -.00001238  00000+0 -20972-4 0  9998
2 58891  53.1589 293.5078 0001169  84.7279 275.3859 15.39610554 36414
STARLINK-31254          
1 58892U 24020S   24255.53575979  .00001729  00000+0  62674-4 0  9995
2 58892  53.1606 331.0476 0001311 106.6463 253.4683 15.34194758 34747
STARLINK-31255          
1 58893U 24020T   24255.61520608  .00020520  00000+0  62064-3 0  9996
2 58893  53.1587 330.8151 0001352 119.2253 240.8885 15.34203159 34756
STARLINK-31243          
1 58894U 24020U   24255.48457699  .00000132  00000+0  15113-4 0  9992
2 58894  53.1592 331.4236 0001206  73.3992 286.7143 15.34209037 35637
STARLINK-31218          
1 58895U 24020V   24255.80594823  .01032984  00000+0  26752-1 0  9999
2 58895  53.1590 329.8716 0003012  90.7813 269.3535 15.35943606 34787
STARLINK-31221          
1 58896U 24020W   24255.53608356  .00018101  00000+0  54885-3 0  9991
2 58896  53.1612 331.0278 0001416 101.5589 258.5573 15.34209306 34747
STARLINK-31190          
1 58897U 24020X   24255.54040897  .00001535  00000+0  56903-4 0  9990
2 58897  53.1600 331.0542 0001510 113.9836 246.1325 15.34201166 34740
STARLINK-31317          
1 58931U 24027A   24255.46741499  .00013399  00000+0  40905-3 0  9998
2 58931  53.1581 317.6157 0001370  87.8158 272.3001 15.34239736 33845
STARLINK-31378          
1 58932U 24027B   24255.46709603  .00001583  00000+0  58328-4 0  9991
2 58932  53.1596 317.6118 0001287  80.8297 279.2851 15.34200861 34008
STARLINK-31350          
1 58933U 24027C   24255.46242480 -.00003288  00000+0 -86709-4 0  9997
2 58933  53.1593 317.5808 0001344  94.9409 265.1747 15.34224252 33845
STARLINK-31337          
1 58934U 24027D   24255.46275866  .00031391  00000+0  94198-3 0  9996
2 58934  53.1585 317.5804 0001581  71.7635 288.3540 15.34208698 33844
STARLINK-31362          
1 58935U 24027E   24255.61469905  .00002237  00000+0  87648-4 0  9993
2 58935  53.1590 317.1081 0001480  91.0362 269.0808 15.30194859 34027
STARLINK-31383          
1 58936U 24027F   24255.61364232 -.00000983  00000+0 -21064-4 0  9999
2 58936  53.1615 317.1017 0001852  68.0659 292.0539 15.30170837 34028
STARLINK-31390          
1 58937U 24027G   24255.54411152  .00002951  00000+0  11179-3 0  9996
2 58937  53.1599 317.3814 0001351 107.5561 252.5587 15.30181654 34014
STARLINK-31377          
1 58938U 24027H   24255.61259064  .00014561  00000+0  50286-3 0  9999
2 58938  53.1580 317.0949 0001234 101.7007 258.4132 15.30193950 34026
STARLINK-31372          
1 58939U 24027J   24255.47563477  .00001483  00000+0  62220-4 0  9991
2 58939  53.1590 317.6656 0001227  90.2931 269.8210 15.30178905 34003
STARLINK-31371          
1 58940U 24027K   24255.47457981  .00000652  00000+0  34141-4 0  9993
2 58940  53.1580 317.6552 0001138  87.8327 272.2804 15.30179633 34007
STARLINK-31345          
1 58941U 24027L   24255.46929790  .00001066  00000+0  48145-4 0  9994
2 58941  53.1565 317.6235 0001248  82.6056 277.5086 15.30183858 34007
STARLINK-31354          
1 58942U 24027M   24255.47246400 -.00000113  00000+0  82960-5 0  9993
2 58942  53.1571 317.6440 0001139 111.7727 248.3395 15.30182198 34006
STARLINK-31346          
1 58943U 24027N   24255.46612605 -.00003574  00000+0 -10855-3 0  9994
2 58943  53.1598 317.6025 0001519  64.5531 295.5627 15.30208948 33794
STARLINK-31336          
1 58944U 24027P   24255.48091760  .00000454  00000+0  27488-4 0  9993
2 58944  53.1589 317.6990 0001196  96.5272 263.5864 15.30166877 33998
STARLINK-31359          
1 58945U 24027Q   24255.60485224  .00037945  00000+0  10404-2 0  9993
2 58945  53.1611 314.9008 0002884  59.1835 300.9453 15.36944124 34064
STARLINK-31331          
1 58946U 24027R   24255.45980451  .00003516  00000+0  13088-3 0  9998
2 58946  53.1591 317.5596 0001407  86.6620 273.4541 15.30173601 34004
STARLINK-31116          
1 58947U 24027S   24255.46296642 -.00001632  00000+0 -43006-4 0  9995
2 58947  53.1576 317.5813 0001424 104.9339 255.1819 15.30174948 33582
STARLINK-31311          
1 58948U 24027T   24255.45663889  .00001137  00000+0  50563-4 0  9990
2 58948  53.1596 317.5400 0001400  94.8986 265.2174 15.30175915 34005
STARLINK-31294          
1 58949U 24027U   24255.55149412  .00001379  00000+0  58711-4 0  9994
2 58949  53.1590 317.4182 0001560 116.4958 243.6203 15.30189068 33863
STARLINK-31330          
1 58951U 24027W   24255.91667824 -.00040054  00000+0 -13013-2 0  9998
2 58951  53.1593 315.5032 0001273 103.6158 222.1574 15.31318335 33925
STARLINK-31293          
1 58952U 24027X   24255.45346819 -.00000450  00000+0 -30684-5 0  9998
2 58952  53.1584 317.5206 0001378  89.9645 270.1514 15.30183435 34001
STARLINK-31373          
1 58965U 24031A   24255.45983316  .00002090  00000+0  73394-4 0  9990
2 58965  53.1595 305.6886 0001526 123.4055 236.7093 15.34204600 33194
STARLINK-31449          
1 58966U 24031B   24255.39434590 -.00001564  00000+0 -35376-4 0  9994
2 58966  53.1586 305.9899 0001296 103.8735 256.2411 15.34220711 33184
STARLINK-31314          
1 58967U 24031C   24255.51997337  .00002713  00000+0  91905-4 0  9997
2 58967  53.1588 305.3502 0001347 107.7969 252.3181 15.34223369 33207
STARLINK-31356          
1 58968U 24031D   24255.91667824 -.01498744  00000+0 -50508-1 0  9994
2 58968  53.1593 302.8632 0000994  80.9322 279.8451 15.33560208  5716
STARLINK-31335          
1 58969U 24031E   24255.45050467  .00002644  00000+0  89840-4 0  9994
2 58969  53.1588 305.6320 0001460  87.1349 272.9821 15.34222651 33199
STARLINK-31368          
1 58970U 24031F   24255.38503339  .00000256  00000+0  18812-4 0  9997
2 58970  53.1590 305.9356 0001617  90.1755 269.9433 15.34215534 33181
